QIANFAN-17              
1 60395U 24140S   25345.25257767  .00000126  00000+0  17712-3 0  9993
2 60395  88.9770 299.5878 0013698 204.3403 155.7103 13.50976609 67938
QIANFAN-18              
1 60396U 24140T   25345.23199668  .00000144  00000+0  20490-3 0  9994
2 60396  88.9763 299.1236 0013553 185.5603 174.5399 13.50976626 67325
QIANFAN-19              
1 61552U 24185A   25345.31129283  .00000793  00000+0  40823-3 0  9995
2 61552  88.9822  78.1050 0005241 321.4671  38.6141 14.14294327 69460
QIANFAN-20              
1 61553U 24185B   25345.26729973  .00000947  00000+0  54091-3 0  9995
2 61553  88.9820  78.4324 0005486   9.3898 350.7387 14.08841893 69289
QIANFAN-21              
1 61554U 24185C   25345.27349089  .00001100  00000+0  48568-3 0  9997
2 61554  88.9737  77.1513 0010794  19.8309 340.3300 14.22605431 69769
QIANFAN-22              
1 61555U 24185D   25345.27401684  .00000319  00000+0  26440-3 0  9994
2 61555  88.9804  79.4068 0006510  18.4533 341.6873 13.86302287 68737
QIANFAN-23              
1 61556U 24185E   25345.28870067  .00000778  00000+0  38539-3 0  9992
2 61556  88.9814  77.9180 0006324 334.3334  25.7540 14.16290757 69542
QIANFAN-24              
1 61557U 24185F   25345.27739660  .00001144  00000+0  49401-3 0  9993
2 61557  88.9795  77.3267 0007579 310.2361  49.8168 14.23808209 69815
